{
  "type": "FeatureCollection",
  "features": [
    {
      "type": "Feature",
      "properties": {
        "norad_id": 33376,
        "name": "GALAXY 19 (G-19)",
        "group": "intelsat",
        "lat": 0.01600991951107911,
        "lon": 131.82709847194738,
        "alt_km": 35793.11954887097,
        "timestamp": "2025-12-10T09:57:44.371971+00:00",
        "meta_object_name": "GALAXY 19 (G-19)",
        "meta_object_id": "2008-045A",
        "meta_epoch": "2025-12-10T04:23:38.620032",
        "meta_mean_motion": 1.00278274,
        "meta_eccentricity": 0.0003016,
        "meta_inclination": 0.0172,
        "meta_ra_of_asc_node": 336.4091,
        "meta_arg_of_pericenter": 289.353,
        "meta_mean_anomaly": 142.3352,
        "meta_ephemeris_type": 0,
        "meta_classification_type": "U",
        "meta_norad_cat_id": 33376,
        "meta_element_set_no": 999,
        "meta_rev_at_epoch": 6300,
        "meta_bstar": 0,
        "meta_mean_motion_dot": -1.37e-06,
        "meta_mean_motion_ddot": 0,
        "tle_line1": "1 33376U 08045A   25344.18308588 -.00000137  00000+0  00000+0 0  9998",
        "tle_line2": "2 33376   0.0172 336.4091 0003016 289.3530 142.3352  1.00278274 63000"
      },
      "geometry": {
        "type": "Point",
        "coordinates": [
          131.82709847194738,
          0.01600991951107911
        ]
      }
    },
    {
      "type": "Feature",
      "properties": {
        "norad_id": 35493,
        "name": "FM-5",
        "group": "intelsat",
        "lat": -0.00684899456308662,
        "lon": 142.67729117403857,
        "alt_km": 35784.23230302992,
        "timestamp": "2025-12-10T09:57:44.371983+00:00",
        "meta_object_name": "FM-5",
        "meta_object_id": "2009-034A",
        "meta_epoch": "2025-12-10T02:10:38.678016",
        "meta_mean_motion": 1.00270729,
        "meta_eccentricity": 6.09e-05,
        "meta_inclination": 0.0185,
        "meta_ra_of_asc_node": 289.7385,
        "meta_arg_of_pericenter": 244.8327,
        "meta_mean_anomaly": 211.0208,
        "meta_ephemeris_type": 0,
        "meta_classification_type": "U",
        "meta_norad_cat_id": 35493,
        "meta_element_set_no": 999,
        "meta_rev_at_epoch": 4474,
        "meta_bstar": 0,
        "meta_mean_motion_dot": -1.97e-06,
        "meta_mean_motion_ddot": 0,
        "tle_line1": "1 35493U 09034A   25344.09072544 -.00000197  00000+0  00000+0 0  9995",
        "tle_line2": "2 35493   0.0185 289.7385 0000609 244.8327 211.0208  1.00270729 44748"
      },
      "geometry": {
        "type": "Point",
        "coordinates": [
          142.67729117403857,
          -0.00684899456308662
        ]
      }
    },
    {
      "type": "Feature",
      "properties": {
        "norad_id": 36097,
        "name": "INTELSAT 14 (IS-14)",
        "group": "intelsat",
        "lat": -0.007510089943016489,
        "lon": -176.20566556306912,
        "alt_km": 35785.1431558775,
        "timestamp": "2025-12-10T09:57:44.371995+00:00",
        "meta_object_name": "INTELSAT 14 (IS-14)",
        "meta_object_id": "2009-064A",
        "meta_epoch": "2025-12-09T20:12:25.275744",
        "meta_mean_motion": 1.00270287,
        "meta_eccentricity": 0.0002657,
        "meta_inclination": 0.0097,
        "meta_ra_of_asc_node": 353.7968,
        "meta_arg_of_pericenter": 272.7981,
        "meta_mean_anomaly": 70.3417,
        "meta_ephemeris_type": 0,
        "meta_classification_type": "U",
        "meta_norad_cat_id": 36097,
        "meta_element_set_no": 999,
        "meta_rev_at_epoch": 5870,
        "meta_bstar": 0,
        "meta_mean_motion_dot": -2.71e-06,
        "meta_mean_motion_ddot": 0,
        "tle_line1": "1 36097U 09064A   25343.84195921 -.00000271  00000+0  00000+0 0  9999",
        "tle_line2": "2 36097   0.0097 353.7968 0002657 272.7981  70.3417  1.00270287 58709"
      },
      "geometry": {
        "type": "Point",
        "coordinates": [
          -176.20566556306912,
          -0.007510089943016489
        ]
      }
    },
    {
      "type": "Feature",
      "properties": {
        "norad_id": 36106,
        "name": "INTELSAT 15 (IS-15)",
        "group": "intelsat",
        "lat": 0.005967013129263374,
        "lon": -46.00921491798199,
        "alt_km": 35779.32595928279,
        "timestamp": "2025-12-10T09:57:44.372008+00:00",
        "meta_object_name": "INTELSAT 15 (IS-15)",
        "meta_object_id": "2009-067A",
        "meta_epoch": "2025-12-10T00:35:38.775840",
        "meta_mean_motion": 1.00270865,
        "meta_eccentricity": 0.0002455,
        "meta_inclination": 0.027,
        "meta_ra_of_asc_node": 287.2149,
        "meta_arg_of_pericenter": 339.4396,
        "meta_mean_anomaly": 266.412,
        "meta_ephemeris_type": 0,
        "meta_classification_type": "U",
        "meta_norad_cat_id": 36106,
        "meta_element_set_no": 999,
        "meta_rev_at_epoch": 3933,
        "meta_bstar": 0,
        "meta_mean_motion_dot": -1.82e-06,
        "meta_mean_motion_ddot": 0,
        "tle_line1": "1 36106U 09067A   25344.02475435 -.00000182  00000+0  00000+0 0  9996",
        "tle_line2": "2 36106   0.0270 287.2149 0002455 339.4396 266.4120  1.00270865 39331"
      },
      "geometry": {
        "type": "Point",
        "coordinates": [
          -46.00921491798199,
          0.005967013129263374
        ]
      }
    },
    {
      "type": "Feature",
      "properties": {
        "norad_id": 36131,
        "name": "DIRECTV 12",
        "group": "intelsat",
        "lat": 0.01581143978908699,
        "lon": 126.13138584424142,
        "alt_km": 35786.94332420361,
        "timestamp": "2025-12-10T09:57:44.372019+00:00",
        "meta_object_name": "DIRECTV 12",
        "meta_object_id": "2009-075A",
        "meta_epoch": "2025-12-10T04:31:38.802720",
        "meta_mean_motion": 1.00278488,
        "meta_eccentricity": 8.31e-05,
        "meta_inclination": 0.0399,
        "meta_ra_of_asc_node": 141.5223,
        "meta_arg_of_pericenter": 202.9692,
        "meta_mean_anomaly": 59.8853,
        "meta_ephemeris_type": 0,
        "meta_classification_type": "U",
        "meta_norad_cat_id": 36131,
        "meta_element_set_no": 999,
        "meta_rev_at_epoch": 4465,
        "meta_bstar": 0,
        "meta_mean_motion_dot": -1.01e-06,
        "meta_mean_motion_ddot": 0,
        "tle_line1": "1 36131U 09075A   25344.18864355 -.00000101  00000+0  00000+0 0  9994",
        "tle_line2": "2 36131   0.0399 141.5223 0000831 202.9692  59.8853  1.00278488 44652"
      },
      "geometry": {
        "type": "Point",
        "coordinates": [
          126.13138584424142,
          0.01581143978908699
        ]
      }
    },
    {
      "type": "Feature",
      "properties": {
        "norad_id": 36397,
        "name": "INTELSAT 16 (IS-16)",
        "group": "intelsat",
        "lat": -0.005251644854530551,
        "lon": 152.5926418934358,
        "alt_km": 35789.87849015818,
        "timestamp": "2025-12-10T09:57:44.372031+00:00",
        "meta_object_name": "INTELSAT 16 (IS-16)",
        "meta_object_id": "2010-006A",
        "meta_epoch": "2025-12-09T12:32:17.671200",
        "meta_mean_motion": 1.00270281,
        "meta_eccentricity": 0.00022839,
        "meta_inclination": 0.0146,
        "meta_ra_of_asc_node": 310.5057,
        "meta_arg_of_pericenter": 312.0313,
        "meta_mean_anomaly": 287.8475,
        "meta_ephemeris_type": 0,
        "meta_classification_type": "U",
        "meta_norad_cat_id": 36397,
        "meta_element_set_no": 999,
        "meta_rev_at_epoch": 5775,
        "meta_bstar": 0,
        "meta_mean_motion_dot": -2.42e-06,
        "meta_mean_motion_ddot": 0,
        "tle_line1": "1 36397U 10006A   25343.52242675 -.00000242  00000+0  00000+0 0  9992",
        "tle_line2": "2 36397   0.0146 310.5057 0002283 312.0313 287.8475  1.00270281 57756"
      },
      "geometry": {
        "type": "Point",
        "coordinates": [
          152.5926418934358,
          -0.005251644854530551
        ]
      }
    },
    {
      "type": "Feature",
      "properties": {
        "norad_id": 37185,
        "name": "XM-5",
        "group": "intelsat",
        "lat": -0.008952368236899664,
        "lon": 113.61291940640989,
        "alt_km": 35781.65280450058,
        "timestamp": "2025-12-10T09:57:44.372043+00:00",
        "meta_object_name": "XM-5",
        "meta_object_id": "2010-053A",
        "meta_epoch": "2025-12-10T04:39:38.509344",
        "meta_mean_motion": 1.00269464,
        "meta_eccentricity": 0.0001519,
        "meta_inclination": 0.0618,
        "meta_ra_of_asc_node": 272.7422,
        "meta_arg_of_pericenter": 238.3353,
        "meta_mean_anomaly": 242.8089,
        "meta_ephemeris_type": 0,
        "meta_classification_type": "U",
        "meta_norad_cat_id": 37185,
        "meta_element_set_no": 999,
        "meta_rev_at_epoch": 5558,
        "meta_bstar": 0,
        "meta_mean_motion_dot": -1.9e-07,
        "meta_mean_motion_ddot": 0,
        "tle_line1": "1 37185U 10053A   25344.19419571 -.00000019  00000+0  00000+0 0  9997",
        "tle_line2": "2 37185   0.0618 272.7422 0001519 238.3353 242.8089  1.00269464 55588"
      },
      "geometry": {
        "type": "Point",
        "coordinates": [
          113.61291940640989,
          -0.008952368236899664
        ]
      }
    }
  ]
}